{
    "satellites": [
        {
            "name": "starlink382",
            "title": "Starlink-382 (G10-38) (new)",
            "tle": [
                "1 70597C 26099P   26127.44631944 -.01731100  00000+0 -38051-2 0  1273",
                "2 70597  53.1605 358.9292 0000623  86.1786  75.7598 15.98245582    16"
            ],
            "stdMag": 5,
            "noradId": "70597",
            "intDes": null,
            "tleUrl": "http://celestrak.org/NORAD/elements/supplemental/sup-gp.php?FILE=starlink&FORMAT=tle",
            "launchDate": "2026-05-01T18:06:10.000Z",
            "active": true,
            "batch": [
                {
                    "noradId": "70597",
                    "tle": [
                        "1 70597C 26099P   26127.44631944 -.01731100  00000+0 -38051-2 0  1273",
                        "2 70597  53.1605 358.9292 0000623  86.1786  75.7598 15.98245582    16"
                    ]
                },
                {
                    "noradId": "70596",
                    "tle": [
                        "1 70596C 26099N   26127.41645833 -.01757500  00000+0 -38716-2 0  1271",
                        "2 70596  53.1606 359.0873 0000332  99.3795 248.6702 15.98219953    17"
                    ]
                },
                {
                    "noradId": "70598",
                    "tle": [
                        "1 70598C 26099Q   26127.40256944 -.01789400  00000+0 -38681-2 0  1278",
                        "2 70598  53.1606 359.1506 0000464  95.9486 176.0765 15.98575617    13"
                    ]
                },
                {
                    "noradId": "70595",
                    "tle": [
                        "1 70595C 26099M   26127.41645833 -.01767500  00000+0 -39241-2 0  1275",
                        "2 70595  53.1604 359.0904 0000353  76.6568 269.6098 15.98083224    19"
                    ]
                },
                {
                    "noradId": "70599",
                    "tle": [
                        "1 70599C 26099R   26127.44979167 -.01752300  00000+0 -37919-2 0  1274",
                        "2 70599  53.1604 358.9030 0000670  79.5710 106.3633 15.98537438    17"
                    ]
                },
                {
                    "noradId": "70600",
                    "tle": [
                        "1 70600C 26099S   26127.42756944 -.01734800  00000+0 -37091-2 0  1277",
                        "2 70600  53.1605 359.0136 0000482  77.7505 342.1428 15.98745435    13"
                    ]
                },
                {
                    "noradId": "70593",
                    "tle": [
                        "1 70593C 26099K   26127.44423611 -.01752500  00000+0 -39763-2 0  1277",
                        "2 70593  53.1606 358.9567 0000558  91.6677  50.4172 15.97682318    14"
                    ]
                },
                {
                    "noradId": "70594",
                    "tle": [
                        "1 70594C 26099L   26127.42340278 -.01766000  00000+0 -39581-2 0  1271",
                        "2 70594  53.1605 359.0590 0000326  87.2435 297.0585 15.97912125    17"
                    ]
                },
                {
                    "noradId": "70601",
                    "tle": [
                        "1 70601C 26099T   26127.41506944 -.01757300  00000+0 -37160-2 0  1277",
                        "2 70601  53.1605 359.0737 0000322  99.1367 250.9497 15.98954242    18"
                    ]
                },
                {
                    "noradId": "70592",
                    "tle": [
                        "1 70592C 26099J   26127.42548611 -.01764300  00000+0 -40207-2 0  1278",
                        "2 70592  53.1607 359.0570 0000338  86.3388 305.9538 15.97608414    15"
                    ]
                },
                {
                    "noradId": "70602",
                    "tle": [
                        "1 70602C 26099U   26127.42687500 -.01738600  00000+0 -36579-2 0  1272",
                        "2 70602  53.1606 359.0095 0000318  97.1340 322.6076 15.99035561    16"
                    ]
                },
                {
                    "noradId": "70591",
                    "tle": [
                        "1 70591C 26099H   26127.39770833 -.01799300  00000+0 -41104-2 0  1271",
                        "2 70591  53.1605 359.2028 0000626  79.5744 151.0428 15.97582422    10"
                    ]
                },
                {
                    "noradId": "70590",
                    "tle": [
                        "1 70590C 26099G   26127.40673611 -.01805200  00000+0 -41650-2 0  1271",
                        "2 70590  53.1607 359.1610 0000469  85.4260 195.1433 15.97404176    15"
                    ]
                },
                {
                    "noradId": "70603",
                    "tle": [
                        "1 70603C 26099V   26127.38659722 -.01776600  00000+0 -36784-2 0  1273",
                        "2 70603  53.1605 359.2131 0000726  87.0332 102.5681 15.99340325    15"
                    ]
                },
                {
                    "noradId": "70589",
                    "tle": [
                        "1 70589C 26099F   26127.39284722 -.01781900  00000+0 -41334-2 0  1277",
                        "2 70589  53.1606 359.2356 0000672  76.0095 122.7966 15.97293734    11"
                    ]
                },
                {
                    "noradId": "70588",
                    "tle": [
                        "1 70588C 26099E   26127.44701389 -.01769000  00000+0 -42129-2 0  1275",
                        "2 70588  53.1606 358.9646 0000719  81.0258  65.9147 15.96806170    19"
                    ]
                },
                {
                    "noradId": "70587",
                    "tle": [
                        "1 70587C 26099D   26127.41993056 -.01769800  00000+0 -41600-2 0  1276",
                        "2 70587  53.1605 359.1003 0000370  89.5167 263.4035 15.97047147    15"
                    ]
                },
                {
                    "noradId": "70604",
                    "tle": [
                        "1 70604C 26099W   26127.45048611 -.01730600  00000+0 -36027-2 0  1271",
                        "2 70604  53.1604 358.8810 0000654  97.3226 101.7832 15.99219963    12"
                    ]
                },
                {
                    "noradId": "70586",
                    "tle": [
                        "1 70586C 26099C   26127.41020833 -.01794200  00000+0 -42788-2 0  1279",
                        "2 70586  53.1606 359.1584 0000476  75.1745 217.8656 15.96794005    12"
                    ]
                },
                {
                    "noradId": "70585",
                    "tle": [
                        "1 70585C 26099B   26127.39562500 -.01801300  00000+0 -43181-2 0  1275",
                        "2 70585  53.1607 359.2370 0000741  79.4188 127.9121 15.96701786    11"
                    ]
                },
                {
                    "noradId": "70584",
                    "tle": [
                        "1 70584C 26099A   26127.42340278 -.01788900  00000+0 -43481-2 0  1277",
                        "2 70584  53.1607 359.0988 0000494  74.7992 290.2006 15.96441558    13"
                    ]
                },
                {
                    "noradId": "70605",
                    "tle": [
                        "1 70605C 26099X   26127.39701389 -.01748500  00000+0 -35787-2 0  1273",
                        "2 70605  53.1604 359.1536 0000568  78.3610 174.0480 15.99531503    11"
                    ]
                },
                {
                    "noradId": "70606",
                    "tle": [
                        "1 70606C 26099Y   26127.40812500 -.01713400  00000+0 -34922-2 0  1275",
                        "2 70606  53.1604 359.0919 0000303  91.0085 227.9044 15.99588350    17"
                    ]
                },
                {
                    "noradId": "70607",
                    "tle": [
                        "1 70607C 26099Z   26127.43798611 -.01721100  00000+0 -35027-2 0  1278",
                        "2 70607  53.1603 358.9339 0000595  82.1383  50.5482 15.99618045    17"
                    ]
                },
                {
                    "noradId": "70608",
                    "tle": [
                        "1 70608C 26099AA  26127.41368056 -.01718900  00000+0 -34574-2 0  1273",
                        "2 70608  53.1605 359.0560 0000365  84.1951 269.9032 15.99824106    10"
                    ]
                },
                {
                    "noradId": "70609",
                    "tle": [
                        "1 70609C 26099AB  26127.44979167 -.01710300  00000+0 -34397-2 0  1277",
                        "2 70609  53.1600 358.8637 0000640  86.3776 118.4313 15.99822028    14"
                    ]
                },
                {
                    "noradId": "70610",
                    "tle": [
                        "1 70610C 26099AC  26127.40326389 -.01727500  00000+0 -34197-2 0  1275",
                        "2 70610  53.1603 359.0995 0000475  87.1425 211.8106 16.00110638    13"
                    ]
                },
                {
                    "noradId": "70611",
                    "tle": [
                        "1 70611C 26099AD  26127.40881944 -.01745400  00000+0 -34350-2 0  1279",
                        "2 70611  53.1601 359.0655 0000353  86.8456 246.4682 16.00222526    13"
                    ]
                },
                {
                    "noradId": "70612",
                    "tle": [
                        "1 70612C 26099AE  26127.40881944 -.01741600  00000+0 -34039-2 0  1272",
                        "2 70612  53.1601 359.0603 0000317  99.9188 235.8032 16.00341748    13"
                    ]
                }
            ]
        }
    ],
    "config": {}
}